{
  "type": "FeatureCollection",
  "name": "australian_states_simplified",
  "features": [
    {
      "type": "Feature",
      "properties": {
        "state": "WA",
        "name": "Western Australia"
      },
      "geometry": {
        "type": "Polygon",
        "coordinates": [
          [
            [
              129.0,
              -13.7
            ],
            [
              129.0,
              -19.0
            ],
            [
              129.0,
              -25.5
            ],
            [
              129.0,
              -31.7
            ],
            [
              127.0,
              -32.0
            ],
            [
              125.0,
              -32.8
            ],
            [
              122.0,
              -34.0
            ],
            [
              119.0,
              -34.7
            ],
            [
              117.0,
              -35.0
            ],
            [
              115.7,
              -34.3
            ],
            [
              115.7,
              -32.2
            ],
            [
              114.7,
              -31.0
            ],
            [
              114.5,
              -29.0
            ],
            [
              114.0,
              -27.0
            ],
            [
              113.2,
              -25.5
            ],
            [
              114.0,
              -24.0
            ],
            [
              114.5,
              -22.5
            ],
            [
              116.0,
              -21.0
            ],
            [
              118.5,
              -20.5
            ],
            [
              121.0,
              -19.8
            ],
            [
              122.5,
              -18.5
            ],
            [
              122.0,
              -16.5
            ],
            [
              125.0,
              -14.0
            ],
            [
              127.0,
              -14.5
            ],
            [
              129.0,
              -13.7
            ]
          ]
        ]
      }
    },
    {
      "type": "Feature",
      "properties": {
        "state": "NT",
        "name": "Northern Territory"
      },
      "geometry": {
        "type": "Polygon",
        "coordinates": [
          [
            [
              129.0,
              -13.7
            ],
            [
              129.8,
              -13.0
            ],
            [
              130.5,
              -12.4
            ],
            [
              131.5,
              -12.0
            ],
            [
              132.5,
              -11.3
            ],
            [
              133.5,
              -11.6
            ],
            [
              135.2,
              -12.5
            ],
            [
              135.6,
              -14.0
            ],
            [
              136.0,
              -14.8
            ],
            [
              137.0,
              -16.2
            ],
            [
              138.0,
              -16.5
            ],
            [
              138.0,
              -25.5
            ],
            [
              129.0,
              -25.5
            ],
            [
              129.0,
              -13.7
            ]
          ]
        ]
      }
    },
    {
      "type": "Feature",
      "properties": {
        "state": "SA",
        "name": "South Australia"
      },
      "geometry": {
        "type": "Polygon",
        "coordinates": [
          [
            [
              129.0,
              -25.5
            ],
            [
              141.0,
              -25.5
            ],
            [
              141.0,
              -34.0
            ],
            [
              141.0,
              -38.0
            ],
            [
              140.0,
              -37.7
            ],
            [
              139.0,
              -36.0
            ],
            [
              137.5,
              -35.5
            ],
            [
              137.0,
              -34.8
            ],
            [
              135.5,
              -34.9
            ],
            [
              135.0,
              -34.7
            ],
            [
              134.0,
              -32.5
            ],
            [
              132.5,
              -31.6
            ],
            [
              131.0,
              -31.7
            ],
            [
              129.0,
              -31.7
            ],
            [
              129.0,
              -25.5
            ]
          ]
        ]
      }
    },
    {
      "type": "Feature",
      "properties": {
        "state": "QLD",
        "name": "Queensland"
      },
      "geometry": {
        "type": "Polygon",
        "coordinates": [
          [
            [
              138.0,
              -16.5
            ],
            [
              139.5,
              -17.0
            ],
            [
              140.7,
              -17.4
            ],
            [
              141.5,
              -13.0
            ],
            [
              142.5,
              -10.7
            ],
            [
              144.0,
              -14.3
            ],
            [
              145.5,
              -15.0
            ],
            [
              145.7,
              -17.0
            ],
            [
              147.0,
              -19.0
            ],
            [
              149.0,
              -20.5
            ],
            [
              152.5,
              -22.0
            ],
            [
              153.4,
              -25.0
            ],
            [
              153.5,
              -28.2
            ],
            [
              152.5,
              -28.3
            ],
            [
              149.0,
              -28.3
            ],
            [
              141.0,
              -29.0
            ],
            [
              141.0,
              -25.5
            ],
            [
              138.0,
              -25.5
            ],
            [
              138.0,
              -16.5
            ]
          ]
        ]
      }
    },
    {
      "type": "Feature",
      "properties": {
        "state": "NSW",
        "name": "New South Wales"
      },
      "geometry": {
        "type": "Polygon",
        "coordinates": [
          [
            [
              141.0,
              -29.0
            ],
            [
              149.0,
              -28.3
            ],
            [
              153.0,
              -28.5
            ],
            [
              153.0,
              -29.5
            ],
            [
              151.5,
              -32.7
            ],
            [
              150.5,
              -34.5
            ],
            [
              150.7,
              -35.5
            ],
            [
              149.7,
              -35.2
            ],
            [
              149.7,
              -36.2
            ],
            [
              148.0,
              -36.2
            ],
            [
              146.0,
              -36.0
            ],
            [
              144.0,
              -35.5
            ],
            [
              142.0,
              -34.5
            ],
            [
              141.0,
              -34.0
            ],
            [
              141.0,
              -29.0
            ]
          ]
        ]
      }
    },
    {
      "type": "Feature",
      "properties": {
        "state": "VIC",
        "name": "Victoria"
      },
      "geometry": {
        "type": "Polygon",
        "coordinates": [
          [
            [
              141.0,
              -34.0
            ],
            [
              142.0,
              -34.5
            ],
            [
              144.0,
              -35.5
            ],
            [
              146.0,
              -36.0
            ],
            [
              148.0,
              -36.2
            ],
            [
              149.7,
              -36.2
            ],
            [
              149.7,
              -37.5
            ],
            [
              148.5,
              -37.8
            ],
            [
              147.5,
              -37.8
            ],
            [
              146.5,
              -38.7
            ],
            [
              145.0,
              -38.7
            ],
            [
              144.5,
              -38.5
            ],
            [
              144.0,
              -38.3
            ],
            [
              143.0,
              -38.7
            ],
            [
              141.0,
              -38.1
            ],
            [
              141.0,
              -34.0
            ]
          ]
        ]
      }
    },
    {
      "type": "Feature",
      "properties": {
        "state": "TAS",
        "name": "Tasmania"
      },
      "geometry": {
        "type": "Polygon",
        "coordinates": [
          [
            [
              144.7,
              -40.7
            ],
            [
              145.5,
              -40.8
            ],
            [
              146.5,
              -41.0
            ],
            [
              148.0,
              -40.8
            ],
            [
              148.3,
              -41.5
            ],
            [
              148.3,
              -42.5
            ],
            [
              147.5,
              -43.3
            ],
            [
              146.5,
              -43.6
            ],
            [
              145.5,
              -43.5
            ],
            [
              145.0,
              -42.5
            ],
            [
              144.7,
              -41.5
            ],
            [
              144.7,
              -40.7
            ]
          ]
        ]
      }
    }
  ]
}